# From MPC 75007
C/1995 O1 (Hale-Bopp),e,89.3587,282.5453,130.8825,184.6855,0.0003927,0.99491312,0.0000,03/29.3128/1997,2000,g -2.0,4.0
# From NK 1615
P/1996 R2 (Lagerkvist),e,2.6015,40.0577,333.2017,3.773583,0.1344538,0.31249873,234.0344,07/20.0/2016,2000,g 11.5,4.0
# From MPC 30063
P/1997 B1 (Kobayashi),e,12.3734,329.0177,183.3632,8.557534,0.0393714,0.76113554,278.2813,07/20.0/2016,2000,g 15.0,2.0
# From MPC 75703
P/1998 VS24 (LINEAR),e,5.0230,159.0568,245.0572,4.533135,0.1021189,0.24165690,303.9582,07/20.0/2016,2000,g 13.0,2.0
# From NK 1780
P/1999 D1 (Hermann),e,21.3550,348.7467,174.0802,5.756194,0.0713676,0.71406848,93.4368,07/20.0/2016,2000,g 15.0,4.0
# From CCO 17
P/1999 R1 (SOHO),e,12.5616,359.6558,48.9511,2.516056,0.2469582,0.97873827,0.0000,09/04.0303/2015,2000,g 27.0,6.0
# From NK 731
P/1999 RO28 (LONEOS),e,8.1885,148.1906,219.8525,3.495434,0.1508177,0.65837768,197.2993,07/20.0/2016,2000,g 20.0,2.0
# From MPC 75704
P/1999 XN120 (Catalina),e,5.0278,285.3044,162.0097,4.184165,0.1151571,0.21197973,322.2955,07/20.0/2016,2000,g 13.5,2.0
# From NK 744
P/2000 R2 (LINEAR),e,11.8247,160.6769,176.5894,3.446490,0.1540418,0.53951134,197.1323,07/20.0/2016,2000,g 18.0,4.0
# From MPC 75704
P/2000 S1 (Skiff),e,21.0183,28.1599,309.0951,6.622440,0.0578332,0.61704955,340.3741,07/20.0/2016,2000,g 10.0,4.0
# From MPC 73461
P/2000 S4 (LINEAR-Spacewatch),e,28.4589,174.1059,172.5059,7.130004,0.0517690,0.67986246,299.6689,07/20.0/2016,2000,g 17.5,2.0
# From MPC 75704
P/2001 BB50 (LINEAR-NEAT),e,10.3673,351.1789,193.5528,5.730941,0.0718398,0.58752266,49.2194,07/20.0/2016,2000,g 13.0,4.0
# From MPC 43019
P/2001 H5 (NEAT),e,8.3814,328.6911,224.7415,6.090924,0.0655661,0.60008845,17.8491,07/20.0/2016,2000,g 12.0,4.0
# From MPC 75704
P/2001 Q6 (NEAT),e,56.8566,22.0055,43.1590,7.926696,0.0441637,0.82326564,237.1171,07/20.0/2016,2000,g 13.5,4.0
# From MPC 82311
P/2001 R6 (LINEAR-Skiff),e,17.3782,67.3359,308.4751,4.178543,0.1153896,0.47534839,266.9387,07/20.0/2016,2000,g 13.0,4.0
# From MPC 75704
P/2001 T3 (NEAT),e,19.3983,55.1779,356.8379,6.440187,0.0603054,0.61433177,318.3403,07/20.0/2016,2000,g 12.0,4.0
# From MPC 47727
P/2002 EJ57 (LINEAR),e,4.9770,330.4610,166.9430,6.472665,0.0598521,0.59403935,318.2059,07/20.0/2016,2000,g 12.5,4.0
# From MPC 82311
P/2002 T5 (LINEAR),e,30.8918,123.1222,327.0646,6.981846,0.0534255,0.43777717,254.4476,07/20.0/2016,2000,g  8.0,4.0
# From MPC 75704
P/2002 T6 (NEAT-LINEAR),e,10.9962,208.7378,217.8033,7.636411,0.0467057,0.55851315,222.8321,07/20.0/2016,2000,g 10.5,4.0
# From MPC 75007
C/2002 VQ94 (LINEAR),e,70.4500,34.9019,100.0999,194.0891,0.0003645,0.96496755,1.3911,07/20.0/2016,2000,g  9.5,2.0
# From MPC 50354
P/2003 F2 (NEAT),e,11.6048,359.1326,191.5989,6.503026,0.0594334,0.54258212,288.1288,07/20.0/2016,2000,g 16.5,2.0
# From MPC 75704
P/2003 L1 (Scotti),e,9.0199,226.0527,354.5055,6.726476,0.0564966,0.25270085,278.1668,07/20.0/2016,2000,g  8.5,4.0
# From MPC 50139
P/2003 QX29 (NEAT),e,11.3814,264.5292,37.1965,8.055866,0.0431058,0.47013596,217.3172,07/20.0/2016,2000,g  8.5,4.0
# From MPC 75705
P/2003 SQ215 (NEAT-LONEOS),e,5.5821,257.2423,137.5472,5.480039,0.0768296,0.58391438,344.8776,07/20.0/2016,2000,g 14.0,2.0
# From MPC 99268
P/2003 T12 (SOHO),e,11.4580,176.4015,217.7412,2.570546,0.2391476,0.77545544,31.6876,07/20.0/2016,2000,g 17.0,4.0
# From MPC 75705
P/2003 U3 (NEAT),e,7.0039,348.0215,356.9412,5.061591,0.0865513,0.50862251,55.7265,07/20.0/2016,2000,g 13.5,4.0
# From MPC 82312
P/2004 A1 (LONEOS),e,10.5677,124.9334,21.6716,7.930230,0.0441342,0.31246037,190.9257,07/20.0/2016,2000,g  6.5,4.0
# From MPC 54558
P/2004 DO29 (Spacewatch-LINEAR),e,14.5403,147.5237,40.5656,7.282154,0.0501550,0.44273298,215.9726,07/20.0/2016,2000,g 13.5,2.0
# From MPC 54823
P/2004 FY140 (LINEAR),e,2.1369,326.7747,242.0713,4.892480,0.0910774,0.17021774,32.8284,07/20.0/2016,2000,g 12.5,2.0
# From MPC 53304
P/2004 R3 (LINEAR-NEAT),e,12.8971,306.6656,41.2406,4.708255,0.0964748,0.26668645,175.7483,07/20.0/2016,2000,g 14.5,4.0
# From CCO 17
P/2004 T1 (LINEAR-NEAT),e,11.0333,51.4636,336.3687,3.475424,0.1521221,0.50633271,291.4958,07/20.0/2016,2000,g 12.5,4.0
# From MPC 55521
P/2004 V3 (Siding Spring),e,50.3620,356.0995,322.3409,7.146132,0.0515938,0.44457788,221.3357,07/20.0/2016,2000,g 11.5,4.0
# From MPC 75705
P/2004 V5 (LINEAR-Hill),e,19.3529,47.7415,88.0524,7.951688,0.0439557,0.44656773,182.4112,07/20.0/2016,2000,g  8.0,4.0
# From MPC 75705
P/2004 WR9 (LINEAR),e,4.9312,24.8757,72.1505,6.136755,0.0648330,0.68317911,272.3935,07/20.0/2016,2000,g 14.5,4.0
# From MPC 54164
P/2005 E1 (Tubbiolo),e,4.2701,335.7110,194.0692,7.032299,0.0528516,0.37684422,221.3245,07/20.0/2016,2000,g 10.0,4.0
# From MPC 54823
P/2005 GF8 (LONEOS),e,1.1909,314.9246,285.2814,5.857414,0.0695257,0.51584619,278.7934,07/20.0/2016,2000,g 11.5,4.0
# From MPC 75290
P/2005 JN (Spacewatch),e,8.8562,70.7671,153.4064,3.497788,0.1506655,0.34861641,249.5514,07/20.0/2016,2000,g 14.0,4.0
# From MPC 79019
P/2005 J1 (McNaught),e,31.7558,268.7920,338.9108,3.569061,0.1461750,0.56992807,240.8521,07/20.0/2016,2000,g 16.5,4.0
# From MPC 75705
P/2005 JD108 (Catalina-NEAT),e,3.2764,223.9233,90.4819,6.483392,0.0597036,0.37447238,240.5683,07/20.0/2016,2000,g 10.0,4.0
# From MPC 74246
P/2005 L1 (McNaught),e,7.7322,138.2574,149.4914,3.982762,0.1240017,0.20766475,120.2262,07/20.0/2016,2000,g  9.5,4.0
# From MPC 87062
C/2005 L3 (McNaught),e,139.4464,288.8166,47.0418,2425,0.0000083,0.99769491,0.0000,01/11.1862/2008,2000,g  4.0,4.0
# From MPC 75706
P/2005 R1 (NEAT),e,15.4846,257.9798,118.8190,5.519098,0.0760155,0.62530560,300.2116,07/20.0/2016,2000,g 14.0,4.0
# From MPC 75706
P/2005 S2 (Skiff),e,3.1365,161.2000,230.5576,8.019007,0.0434033,0.19577576,159.7087,07/20.0/2016,2000,g  7.5,4.0
# From MPC 75706
P/2005 S3 (Read),e,3.4891,273.1863,140.6069,4.880025,0.0914263,0.42200306,350.4212,07/20.0/2016,2000,g 12.0,4.0
# From MPC 75706
P/2005 SB216 (LONEOS),e,24.0533,1.3983,83.6069,7.110635,0.0519806,0.46376635,179.2380,07/20.0/2016,2000,g 12.0,2.0
# From MPC 55717
P/2005 T2 (Christensen),e,8.2952,260.2870,59.1990,3.836581,0.1311558,0.41820325,181.7030,07/20.0/2016,2000,g 14.5,4.0
# From MPC 73461
P/2005 T3 (Read),e,6.2467,27.9598,9.0041,7.558823,0.0474267,0.17090306,182.5273,07/20.0/2016,2000,g  9.0,4.0
# From MPC 73461
P/2005 T4 (SWAN),e,160.0724,25.3887,41.3109,9.356375,0.0344384,0.93155010,135.6306,07/20.0/2016,2000,g 15.0,4.0
# From MPC 75706
P/2005 T5 (Broughton),e,21.3382,57.0199,304.6599,7.290740,0.0500664,0.54996046,196.5928,07/20.0/2016,2000,g 11.0,4.0
# From MPC 56954
P/2005 W3 (Kowalski),e,16.4704,210.5097,200.0871,6.338642,0.0617604,0.54279470,243.3328,07/20.0/2016,2000,g 12.0,4.0
# From MPC 75706
P/2005 XA54 (LONEOS-Hill),e,17.1423,143.7746,15.1085,6.050288,0.0662277,0.71104433,250.5320,07/20.0/2016,2000,g 14.0,4.0
# From MPC 75706
P/2005 Y2 (McNaught),e,19.1127,94.5416,194.4377,6.328444,0.0619097,0.46587365,263.5515,07/20.0/2016,2000,g  9.0,4.0
# From MPC 75707
P/2006 D1 (Hill),e,17.3712,359.9700,119.4453,5.565884,0.0750590,0.65982752,293.6173,07/20.0/2016,2000,g 16.0,4.0
# From MPC 75707
P/2006 F1 (Kowalski),e,21.2812,124.7482,186.0456,4.668374,0.0977137,0.11981302,301.1568,07/20.0/2016,2000,g  8.0,4.0
# From MPC 56954
P/2006 F4 (Spacewatch),e,12.3881,184.0462,31.0014,3.529031,0.1486691,0.33768525,195.1931,07/20.0/2016,2000,g 15.0,4.0
# From MPC 58118
P/2006 H1 (McNaught),e,12.8835,0.0617,309.9587,5.724495,0.0719612,0.58085138,270.9089,07/20.0/2016,2000,g 12.5,4.0
# From MPC 75707
P/2006 HR30 (Siding Spring),e,31.9112,309.6229,117.6161,7.807051,0.0451828,0.84219459,157.6228,07/20.0/2016,2000,g 11.0,4.0
# From MPC 73914
C/2006 K4 (NEAT),e,111.2811,116.6525,233.5907,1031,0.0000298,0.99690234,0.0000,11/24.8750/2007,2000,g  6.0,4.0
# From MPC 82313
C/2006 OF2 (Broughton),h,09/12.2426/2008,30.0820,318.3890,96.0265,1.002248,2.457758,2000,5.5,4.0
# From MPC 72849
C/2006 Q1 (McNaught),e,59.1547,199.3146,344.3700,1850,0.0000124,0.99850991,0.0000,07/04.7409/2008,2000,g  5.0,4.0
# From MPC 73461
P/2006 R1 (Siding Spring),e,160.0721,218.8358,249.3752,5.630440,0.0737718,0.70535596,266.7715,07/20.0/2016,2000,g 16.0,4.0
# From MPC 69905
P/2006 S1 (Christensen),e,12.2903,208.1200,133.8565,3.525097,0.1489181,0.60533103,182.8240,07/20.0/2016,2000,g 17.5,4.0
# From MPC 98557
C/2006 S3 (LONEOS),h,04/13.6900/2012,166.0240,38.3512,139.9992,1.000183,5.133300,2000,2.0,4.0
# From MPC 75707
P/2006 S4 (Christensen),e,39.5706,36.1248,305.7752,6.266762,0.0628260,0.50596399,233.5559,07/20.0/2016,2000,g 11.0,4.0
# From MPC 60465
C/2006 S5 (Hill),e,10.1396,281.3892,182.3591,98.33347,0.0010108,0.97311348,0.0000,12/08.6790/2007,2000,g  8.0,4.0
# From MPC 66204
C/2006 U6 (Spacewatch),e,84.7068,179.9711,276.6156,2603,0.0000074,0.99903819,0.0000,06/03.3957/2008,2000,g  8.0,4.0
# From MPC 62580
C/2006 V1 (Catalina),e,31.4593,335.5875,252.9283,154.0009,0.0005157,0.98281380,0.0000,11/26.2645/2007,2000,g  8.0,4.0
# From MPC 75707
P/2006 W1 (Gibbs),e,18.5261,152.7044,231.7159,5.803042,0.0705051,0.70533302,266.0858,07/20.0/2016,2000,g 12.0,4.0
# From MPC 82313
C/2006 W3 (Christensen),e,127.0836,113.5805,133.2970,7843,0.0000014,0.99960395,0.0000,07/07.2330/2009,2000,g  5.0,4.0
# From MPC 75707
P/2007 A2 (Christensen),e,26.5368,300.9800,186.9066,6.308155,0.0622086,0.55880910,215.5718,07/20.0/2016,2000,g 13.5,4.0
# From MPC 59319
P/2007 B1 (Christensen),e,12.3800,77.7188,46.8839,5.807388,0.0704260,0.58172819,243.8229,07/20.0/2016,2000,g 13.5,4.0
# From MPC 66700
C/2007 B2 (Skiff),e,27.6057,14.6896,206.0765,587.9424,0.0000691,0.99496268,0.0000,08/23.0841/2008,2000,g  6.0,4.0
# From MPC 75707
P/2007 C2 (Catalina),e,8.7092,275.8241,179.5564,7.023209,0.0529542,0.46351792,171.5529,07/20.0/2016,2000,g 10.0,4.0
# From MPC 84315
C/2007 D1 (LINEAR),e,41.4861,170.9488,340.2378,2636,0.0000073,0.99665790,0.0000,06/17.5756/2007,2000,g  3.5,4.0
# From MPC 66464
C/2007 G1 (LINEAR),e,88.4755,79.0222,223.8768,3571,0.0000046,0.99925869,0.0000,11/13.0953/2008,2000,g  5.5,4.0
# From MPC 82314
